prediction:
  azimuth_start: 2
  azimuth_stop: 228
  azimuth_tca: null
  max_elevation: 23
  tca: null
  time_start: 2020-04-22 09:41:00
  time_stop: 2020-04-22 09:54:00
satellite:
  name: Delfi-C3
  noradid: '32789'
  tle:
    line1: 1 32789U 08021G   20112.72176216  .00001418  00000-0  96955-4 0  9990
    line2: 2 32789  97.4244 157.4931 0013220 144.4919 215.7192 15.07612095653367
station:
  name: DopTrack
  position:
    altitude: 95
    latitude: 51.9989
    longitude: 4.3733585
tracking:
  epoch: 2020-04-22 09:41:04.427452
  fca: 145868095.0019911
  fca_error: 0.15125021469361632
  tca: 2020-04-22 09:48:04.540270
  tca_error: 0.01132844333786007
